satname,norad_id,inclination_deg,eccentricity,mean_motion_rev_per_day,perigee_km,apogee_km,l1,l2
STARLINK-1008,44714,53.1564,0.0001171,15.31017677,471.972478176659,473.5769617014694,1 44714U 19074B   26049.97137037  .00003199  00000+0  11717-3 0  9990,2 44714  53.1564 265.8136 0001171  89.0638 271.0497 15.31017677346002
STARLINK-1012,44718,53.1594,0.0001205,15.30199429,474.39094519312584,476.04260345273633,1 44718U 19074F   26050.00683073 -.00000433  00000+0 -24867-5 0  9998,2 44718  53.1594 265.5847 0001205 109.6646 250.4485 15.30199429346004
STARLINK-1017,44723,53.048,0.0003551,15.22410581,496.1300603791351,501.0138990965452,1 44723U 19074L   26049.97408584  .00034835  00000+0  14951-2 0  9991,2 44723  53.0480 257.6819 0003551 122.0158 238.1183 15.22410581346113
STARLINK-1019,44724,53.0442,0.0007023,15.76524871,335.57712661377536,345.0138368776352,1 44724U 19074M   26050.58336806  .00181536  00000+0  10980-2 0  9997,2 44724  53.0442 227.4180 0007023 141.2149 280.7590 15.76524871  6013
STARLINK-1020,44725,53.1037,0.00019,15.1839308,509.3877686611586,512.005525447039,1 44725U 19074N   26050.58336806  .00114089  00000+0  54101-2 0  9990,2 44725  53.1037 287.5651 0001900 124.2462 123.3287 15.18393080  5838
STARLINK-1031,44736,53.0421,0.0002802,15.83426142,318.8829773496982,322.6370392331446,1 44736U 19074Z   26050.58336806  .00165027  00000+0  73121-3 0  9994,2 44736  53.0421 211.8289 0002802 213.4471 269.9783 15.83426142  6024
STARLINK-1036,44741,53.0524,0.0005486,15.51905929,407.4370424502995,414.88626093093353,1 44741U 19074AE  26050.02359020  .00085060  00000+0  13863-2 0  9996,2 44741  53.0524 278.6247 0005486 149.6577 210.4750 15.51905929345826
STARLINK-1039,44744,53.0453,0.0006527,15.19925211,501.5731129829628,510.55975214383125,1 44744U 19074AH  26050.01613840  .00045020  00000+0  20698-2 0  9997,2 44744  53.0453 300.8149 0006527 114.1055 246.0623 15.19925211345514
STARLINK-1042,44747,53.0441,0.0002689,15.48826631,418.3293690112823,421.98549175594235,1 44747U 19074AL  26050.52658756  .00024201  00000+0  44928-3 0  9992,2 44747  53.0441 181.8694 0002689 112.5034 247.6258 15.48826631347252
STARLINK-1043,44748,53.0519,0.0002882,15.52417036,407.71514918224057,411.62764194144256,1 44748U 19074AM  26050.63850830  .00025742  00000+0  42042-3 0  9998,2 44748  53.0519 281.5039 0002882  81.0720 279.0615 15.52417036345846
STARLINK-1046,44751,53.0549,0.0007602,15.42027016,434.94438430908303,445.3108738511364,1 44751U 19074AQ  26050.08305277  .00015096  00000+0  35698-3 0  9991,2 44751  53.0549 299.1626 0007602 115.5722 244.6069 15.42027016345542
STARLINK-1047,44752,53.0695,0.0004539,15.32098158,466.4451973353807,472.66153064781156,1 44752U 19074AR  26049.71199745  .00009919  00000+0  32689-3 0  9995,2 44752  53.0695 234.6294 0004539 144.5026 215.6277 15.32098158346437
STARLINK-1048,44753,53.053,0.0005102,15.50421285,412.02902232639553,418.96124455535755,1 44753U 19074AS  26049.84135875  .00021500  00000+0  37835-3 0  9992,2 44753  53.0530 259.4952 0005102 126.9359 233.2117 15.50421285346072
STARLINK-1053,44758,53.0309,0.0003722,15.83410449,318.310923612893,323.2976154939488,1 44758U 19074AX  26050.58336806  .00161177  00000+0  71494-3 0  9991,2 44758  53.0309 175.3198 0003722 342.6006 238.7790 15.83410449  5931
STARLINK-1063,44768,53.1572,0.0001213,15.29328624,476.9864490174532,478.64970371898016,1 44768U 19074BH  26050.20280316 -.00661911  00000+0 -24729-1 0  9995,2 44768  53.1572 305.2658 0001213 123.9205 236.1911 15.29328624345481
STARLINK-1067,44771,53.0548,0.0001451,15.53452593,405.67001073145093,407.63895722010056,1 44771U 19074BL  26049.99541713  .00128775  00000+0  19713-2 0  9996,2 44771  53.0548 294.5941 0001451 112.6195 247.4969 15.53452593345601
STARLINK-1068,44772,53.0502,0.0004968,15.59365186,386.13102371888,392.855341068107,1 44772U 19074BM  26050.63553993  .00112201  00000+0  13828-2 0  9991,2 44772  53.0502 268.0046 0004968 150.1275 210.0021 15.59365186346025
STARLINK-1112,44925,53.0422,0.0002598,15.94973088,286.6574103211806,290.12133742504557,1 44925U 20001M   26050.58336806  .00366379  64195-4  92947-3 0  9996,2 44925  53.0422 334.7750 0002598 121.2056 236.8291 15.94973088  6047
STARLINK-1114,44927,53.0514,0.0008216,15.47020677,419.85735157139516,431.03700108994235,1 44927U 20001P   26050.60771011  .00079465  00000+0  15385-2 0  9999,2 44927  53.0514  55.9367 0008216  46.9543 313.2151 15.47020677337298
STARLINK-1123,44930,53.0538,0.000139,15.06396327,546.2601901628332,548.1854401914516,1 44930U 20001S   26050.47797723  .00000243  00000+0  35194-4 0  9996,2 44930  53.0538  68.3749 0001390  99.3580 260.7566 15.06396327337108
STARLINK-1094,44941,53.1607,0.000109,15.30198252,474.4732726927514,475.9673045816744,1 44941U 20001AD  26050.39533531 -.00000373  00000+0 -48518-6 0  9996,2 44941  53.1607  44.5361 0001090  91.3792 268.7334 15.30198252337439
STARLINK-1122,44949,53.1606,0.0001739,15.30192764,474.04487321410306,476.4284765782313,1 44949U 20001AM  26050.35637073  .00000643  00000+0  33857-4 0  9992,2 44949  53.1606  44.7645 0001739  73.1134 287.0057 15.30192764337428
STARLINK-1080,44961,53.0536,0.0008691,15.44092715,428.12478722005835,439.9657224153825,1 44961U 20001AZ  26050.38050434  .00121538  00000+0  25818-2 0  9992,2 44961  53.0536  15.4578 0008691  51.1197 309.0583 15.44092715337847
STARLINK-1090,44968,53.0555,0.000113,15.06398423,546.4338262871561,547.9989561535722,1 44968U 20001BG  26050.44849192  .00001364  00000+0  11044-3 0  9994,2 44968  53.0555  28.5064 0001130  95.0774 265.0344 15.06398423337668
STARLINK-1132,45044,53.1596,0.0005379,15.4124093,438.77700721788915,446.1145901927375,1 45044U 20006A   26050.19095150  .00110262  00000+0  25840-2 0  9990,2 45044  53.1596 341.5010 0005379 114.6300 245.5266 15.41240930334077
STARLINK-1131,45047,53.1604,0.0001563,15.30160956,474.26045309442725,476.4028473944936,1 45047U 20006D   26050.31254762  .00000170  00000+0  17895-4 0  9992,2 45047  53.1604   6.3385 0001563  94.8129 265.3050 15.30160956333730
STARLINK-1134,45048,53.0356,0.0010176,15.41958723,433.3904762359798,447.267418131687,1 45048U 20006E   26050.03207676  .00051110  00000+0  11820-2 0  9994,2 45048  53.0356 326.8815 0010176 112.6925 247.5156 15.41958723334262
STARLINK-1156,45054,53.1597,0.0001536,15.29356492,476.6817278688395,478.7878516826586,1 45054U 20006L   26050.27215329  .00002319  00000+0  92690-4 0  9994,2 45054  53.1597   6.5246 0001536  89.6896 270.4281 15.29356492333722
STARLINK-1159,45057,53.0489,0.0006383,15.76903138,334.93333892461305,343.5087181838653,1 45057U 20006P   26050.58336806  .00121229  00000+0  72770-3 0  9993,2 45057  53.0489 325.5231 0006383  87.5044 212.9804 15.76903138  6017
STARLINK-1166,45060,53.0551,0.0006186,15.43265861,432.2627461357106,440.69378814421543,1 45060U 20006S   26050.45314020  .00037238  00000+0  82925-3 0  9996,2 45060  53.0551 359.4066 0006186  82.9825 277.1883 15.43265861333842
STARLINK-1169,45061,53.1588,0.0001472,15.30168249,474.30104644163566,476.3187012012886,1 45061U 20006T   26050.33335647  .00062287  00000+0  20996-2 0  9993,2 45061  53.1588   6.2600 0001472  90.1207  59.6211 15.30168249  5799
STARLINK-1171,45062,53.0482,0.0002397,15.53912586,403.68945732009524,406.9414444250442,1 45062U 20006U   26050.21340109  .00094579  00000+0  14319-2 0  9991,2 45062  53.0482 338.9377 0002397 337.9771  22.1135 15.53912586334110
STARLINK-1133,45064,53.1598,7.32e-05,15.30170299,474.80208082303034,475.8054245492249,1 45064U 20006W   26050.18136242 -.00009250  00000+0 -30085-3 0  9993,2 45064  53.1598 343.7693 0000732 107.5525 252.5556 15.30170299334045
STARLINK-1167,45071,53.1611,0.000144,15.29359418,476.7388009701599,478.7132895271916,1 45071U 20006AD  26050.19916218  .00000035  00000+0  13558-4 0  9998,2 45071  53.1611 343.6280 0001440  70.1669 289.9486 15.29359418334047
STARLINK-1168,45072,53.1604,0.0001685,15.29373156,476.5297827766717,478.8401947868915,1 45072U 20006AE  26050.07826172  .00003098  00000+0  11959-3 0  9999,2 45072  53.1604 344.2527 0001685  88.3645 271.7548 15.29373156334028
STARLINK-1172,45074,53.1598,9.54e-05,15.302086,474.5355841519995,475.84319882749514,1 45074U 20006AG  26050.09287602  .00009764  00000+0  34125-3 0  9998,2 45074  53.1598 344.2043 0000954  81.9170 278.1939 15.30208600334023
STARLINK-1153,45080,53.1596,0.0001234,15.29361392,476.8741330748435,478.56615861843875,1 45080U 20006AN  26050.18357245  .00001079  00000+0  49726-4 0  9991,2 45080  53.1596 343.6195 0001234  90.7039 269.4103 15.29361392334047
STARLINK-1151,45081,53.0521,0.0011973,15.55912492,391.3865576806911,407.61629065119905,1 45081U 20006AP  26050.18807935  .00060225  00000+0  85118-3 0  9990,2 45081  53.0521 329.9471 0011973  85.4410 274.7968 15.55912492334235
STARLINK-1185,45087,53.1479,0.0001969,15.28157642,479.96934587485157,482.6706000308004,1 45087U 20006AV  26050.58336806  .00124555  00000+0  44157-2 0  9998,2 45087  53.1479 326.4327 0001969  91.0228 101.6812 15.28157642  5835
STARLINK-1183,45088,53.1489,0.0001161,15.2806955,480.7871850349502,482.3800121579443,1 45088U 20006AW  26050.58336806  .01025044  00000+0  33929-1 0  9997,2 45088  53.1489 326.6568 0001161 108.6501 200.6642 15.28069550  5829
STARLINK-1152,45096,53.0414,0.0007269,15.36002338,452.97574668181187,462.91404254019744,1 45096U 20006BE  26049.93775506  .00051460  00000+0  14468-2 0  9995,2 45096  53.0414 294.7584 0007269 125.4395 234.7286 15.36002338334705
STARLINK-1184,45098,53.0554,0.0006229,15.09594463,533.1305460718504,541.7459697281411,1 45098U 20006BG  26050.19814433  .00004159  00000+0  27369-3 0  9998,2 45098  53.0554 328.8778 0006229  78.9031 281.2659 15.09594463334245
STARLINK-1193,45100,53.0535,0.0005194,15.48927525,416.33132830792147,423.39308988633,1 45100U 20006BJ  26050.04063868  .00080202  00000+0  14540-2 0  9993,2 45100  53.0535 320.1909 0005194 133.9443 226.1994 15.48927525334352
